ONEWEB-0419             
1 50494U 21132AB  26008.25904537  .00000036  00000+0  58894-4 0  9998
2 50494  87.9180   7.2061 0001677  98.7338 261.3984 13.18684699200507
ONEWEB-0420             
1 50495U 21132AC  26008.22441332  .00000025  00000+0  31887-4 0  9996
2 50495  87.9180   7.2253 0001688  83.2434 276.8890 13.18685618200496
ONEWEB-0421             
1 50496U 21132AD  26008.21781821  .00000006  00000+0 -18361-4 0  9998
2 50496  87.9179   7.2190 0002046  83.9827 276.1538 13.18685460200539
ONEWEB-0424             
1 50497U 21132AE  26008.02646706  .00000023  00000+0  25196-4 0  9992
2 50497  87.9179   7.2524 0001532  99.0485 261.0821 13.18684925200531
ONEWEB-0426             
1 50498U 21132AF  26008.29038922 -.00000019  00000+0 -80740-4 0  9990
2 50498  87.9181   7.1917 0002458  90.5334 269.6080 13.18684680200514
ONEWEB-0427             
1 50499U 21132AG  26008.25245789  .00000110  00000+0  24511-3 0  9991
2 50499  87.9178   7.1862 0001899  94.9030 265.2319 13.18687105200533
ONEWEB-0429             
1 50500U 21132AH  26008.23925217 -.00000026  00000+0 -97808-4 0  9991
2 50500  87.9180   7.2213 0001692  84.6554 275.4771 13.18685538200508
ONEWEB-0430             
1 50501U 21132AJ  26008.22770642  .00000017  00000+0  97043-5 0  9991
2 50501  87.9182   7.2198 0001513  89.6796 270.4509 13.18685295200546
ONEWEB-0432             
1 50502U 21132AK  26008.25979571  .00000057  00000+0  11288-3 0  9996
2 50502  87.9175   7.1838 0001944 116.7127 243.4204 13.18678882200509
ONEWEB-0440             
1 50503U 21132AL  26008.24750682 -.00000021  00000+0 -87222-4 0  9991
2 50503  87.9180   7.2054 0001948  76.7367 283.3982 13.18685032200491
ONEWEB-0450             
1 50504U 21132AM  26008.24105112  .00000058  00000+0  11418-3 0  9995
2 50504  87.9174   7.2272 0001545  81.5264 278.6043 13.18686848200525
ONEWEB-0410             
1 51622U 22012A   26008.06790058  .00000016  00000+0  77719-5 0  9996
2 51622  87.9098  37.6735 0003067 109.4479 250.6985 13.17648138192616
ONEWEB-0411             
1 51623U 22012B   26008.19673291 -.00000354  00000+0 -10516-2 0  9996
2 51623  87.8785  68.1592 0001264 111.9748 248.1514 13.10373860188337
ONEWEB-0415             
1 51624U 22012C   26008.19342794 -.00000602  00000+0 -17619-2 0  9995
2 51624  87.8785  68.1623 0001493 107.5977 252.5313 13.10374915188330
ONEWEB-0416             
1 51625U 22012D   26008.12869863 -.00000060  00000+0 -20740-3 0  9998
2 51625  87.8785  68.1958 0001693 116.7317 243.3984 13.10376226188366
ONEWEB-0422             
1 51626U 22012E   26008.30583856  .00000046  00000+0  84706-4 0  9999
2 51626  87.9096  37.6292 0001669  71.6744 288.4569 13.17648962192754
ONEWEB-0423             
1 51627U 22012F   26008.07128107  .00000047  00000+0  87674-4 0  9996
2 51627  87.9095  37.6858 0001826  90.7017 269.4324 13.17649936192617
