[{"OBJECT_NAME":"ONEWEB-0419","OBJECT_ID":"2021-132AB","EPOCH":"2026-01-08T06:13:01.519968","MEAN_MOTION":13.18684699,"ECCENTRICITY":0.00016778,"INCLINATION":87.918,"RA_OF_ASC_NODE":7.2061,"ARG_OF_PERICENTER":98.7338,"MEAN_ANOMALY":261.3984,"EPHEMERIS_TYPE":0,"CLASSIFICATION_TYPE":"U","NORAD_CAT_ID":50494,"ELEMENT_SET_NO":999,"REV_AT_EPOCH":20050,"BSTAR":5.88942e-5,"MEAN_MOTION_DOT":3.6e-7,"MEAN_MOTION_DDOT":0},{"OBJECT_NAME":"ONEWEB-0420","OBJECT_ID":"2021-132AC","EPOCH":"2026-01-08T05:23:09.310848","MEAN_MOTION":13.18685618,"ECCENTRICITY":0.00016881,"INCLINATION":87.918,"RA_OF_ASC_NODE":7.2253,"ARG_OF_PERICENTER":83.2434,"MEAN_ANOMALY":276.889,"EPHEMERIS_TYPE":0,"CLASSIFICATION_TYPE":"U","NORAD_CAT_ID":50495,"ELEMENT_SET_NO":999,"REV_AT_EPOCH":20049,"BSTAR":3.1887184e-5,"MEAN_MOTION_DOT":2.5e-7,"MEAN_MOTION_DDOT":0},{"OBJECT_NAME":"ONEWEB-0421","OBJECT_ID":"2021-132AD","EPOCH":"2026-01-08T05:13:39.493344","MEAN_MOTION":13.1868546,"ECCENTRICITY":0.00020465,"INCLINATION":87.9179,"RA_OF_ASC_NODE":7.219,"ARG_OF_PERICENTER":83.9827,"MEAN_ANOMALY":276.1538,"EPHEMERIS_TYPE":0,"CLASSIFICATION_TYPE":"U","NORAD_CAT_ID":50496,"ELEMENT_SET_NO":999,"REV_AT_EPOCH":20053,"BSTAR":-1.8361467e-5,"MEAN_MOTION_DOT":6.0e-8,"MEAN_MOTION_DDOT":0},{"OBJECT_NAME":"ONEWEB-0424","OBJECT_ID":"2021-132AE","EPOCH":"2026-01-08T00:38:06.753984","MEAN_MOTION":13.18684925,"ECCENTRICITY":0.00015325,"INCLINATION":87.9179,"RA_OF_ASC_NODE":7.2524,"ARG_OF_PERICENTER":99.0485,"MEAN_ANOMALY":261.0821,"EPHEMERIS_TYPE":0,"CLASSIFICATION_TYPE":"U","NORAD_CAT_ID":50497,"ELEMENT_SET_NO":999,"REV_AT_EPOCH":20053,"BSTAR":2.5195896e-5,"MEAN_MOTION_DOT":2.3e-7,"MEAN_MOTION_DDOT":0},{"OBJECT_NAME":"ONEWEB-0426","OBJECT_ID":"2021-132AF","EPOCH":"2026-01-08T06:58:09.628608","MEAN_MOTION":13.1868468,"ECCENTRICITY":0.00024589,"INCLINATION":87.9181,"RA_OF_ASC_NODE":7.1917,"ARG_OF_PERICENTER":90.5334,"MEAN_ANOMALY":269.608,"EPHEMERIS_TYPE":0,"CLASSIFICATION_TYPE":"U","NORAD_CAT_ID":50498,"ELEMENT_SET_NO":999,"REV_AT_EPOCH":20051,"BSTAR":-8.0739943e-5,"MEAN_MOTION_DOT":-1.9e-7,"MEAN_MOTION_DDOT":0},{"OBJECT_NAME":"ONEWEB-0427","OBJECT_ID":"2021-132AG","EPOCH":"2026-01-08T06:03:32.361696","MEAN_MOTION":13.18687105,"ECCENTRICITY":0.00018992,"INCLINATION":87.9178,"RA_OF_ASC_NODE":7.1862,"ARG_OF_PERICENTER":94.903,"MEAN_ANOMALY":265.2319,"EPHEMERIS_TYPE":0,"CLASSIFICATION_TYPE":"U","NORAD_CAT_ID":50499,"ELEMENT_SET_NO":999,"REV_AT_EPOCH":20053,"BSTAR":0.00024511423,"MEAN_MOTION_DOT":1.1e-6,"MEAN_MOTION_DDOT":0},{"OBJECT_NAME":"ONEWEB-0429","OBJECT_ID":"2021-132AH","EPOCH":"2026-01-08T05:44:31.387488","MEAN_MOTION":13.18685538,"ECCENTRICITY":0.00016921,"INCLINATION":87.918,"RA_OF_ASC_NODE":7.2213,"ARG_OF_PERICENTER":84.6554,"MEAN_ANOMALY":275.4771,"EPHEMERIS_TYPE":0,"CLASSIFICATION_TYPE":"U","NORAD_CAT_ID":50500,"ELEMENT_SET_NO":999,"REV_AT_EPOCH":20050,"BSTAR":-9.780784e-5,"MEAN_MOTION_DOT":-2.6e-7,"MEAN_MOTION_DDOT":0},{"OBJECT_NAME":"ONEWEB-0430","OBJECT_ID":"2021-132AJ","EPOCH":"2026-01-08T05:27:53.834688","MEAN_MOTION":13.18685295,"ECCENTRICITY":0.00015135,"INCLINATION":87.9182,"RA_OF_ASC_NODE":7.2198,"ARG_OF_PERICENTER":89.6796,"MEAN_ANOMALY":270.4509,"EPHEMERIS_TYPE":0,"CLASSIFICATION_TYPE":"U","NORAD_CAT_ID":50501,"ELEMENT_SET_NO":999,"REV_AT_EPOCH":20054,"BSTAR":9.704348e-6,"MEAN_MOTION_DOT":1.7e-7,"MEAN_MOTION_DDOT":0},{"OBJECT_NAME":"ONEWEB-0432","OBJECT_ID":"2021-132AK","EPOCH":"2026-01-08T06:14:06.349344","MEAN_MOTION":13.18678882,"ECCENTRICITY":0.00019443,"INCLINATION":87.9175,"RA_OF_ASC_NODE":7.1838,"ARG_OF_PERICENTER":116.7127,"MEAN_ANOMALY":243.4204,"EPHEMERIS_TYPE":0,"CLASSIFICATION_TYPE":"U","NORAD_CAT_ID":50502,"ELEMENT_SET_NO":999,"REV_AT_EPOCH":20050,"BSTAR":0.00011287964,"MEAN_MOTION_DOT":5.7e-7,"MEAN_MOTION_DDOT":0},{"OBJECT_NAME":"ONEWEB-0440","OBJECT_ID":"2021-132AL","EPOCH":"2026-01-08T05:56:24.589248","MEAN_MOTION":13.18685032,"ECCENTRICITY":0.00019485,"INCLINATION":87.918,"RA_OF_ASC_NODE":7.2054,"ARG_OF_PERICENTER":76.7367,"MEAN_ANOMALY":283.3982,"EPHEMERIS_TYPE":0,"CLASSIFICATION_TYPE":"U","NORAD_CAT_ID":50503,"ELEMENT_SET_NO":999,"REV_AT_EPOCH":20049,"BSTAR":-8.7221692e-5,"MEAN_MOTION_DOT":-2.1e-7,"MEAN_MOTION_DDOT":0},{"OBJECT_NAME":"ONEWEB-0450","OBJECT_ID":"2021-132AM","EPOCH":"2026-01-08T05:47:06.816768","MEAN_MOTION":13.18686848,"ECCENTRICITY":0.00015451,"INCLINATION":87.9174,"RA_OF_ASC_NODE":7.2272,"ARG_OF_PERICENTER":81.5264,"MEAN_ANOMALY":278.6043,"EPHEMERIS_TYPE":0,"CLASSIFICATION_TYPE":"U","NORAD_CAT_ID":50504,"ELEMENT_SET_NO":999,"REV_AT_EPOCH":20052,"BSTAR":0.00011417757,"MEAN_MOTION_DOT":5.8e-7,"MEAN_MOTION_DDOT":0},{"OBJECT_NAME":"ONEWEB-0410","OBJECT_ID":"2022-012A","EPOCH":"2026-01-08T01:37:46.610112","MEAN_MOTION":13.17648138,"ECCENTRICITY":0.00030675,"INCLINATION":87.9098,"RA_OF_ASC_NODE":37.6735,"ARG_OF_PERICENTER":109.4479,"MEAN_ANOMALY":250.6985,"EPHEMERIS_TYPE":0,"CLASSIFICATION_TYPE":"U","NORAD_CAT_ID":51622,"ELEMENT_SET_NO":999,"REV_AT_EPOCH":19261,"BSTAR":7.771933e-6,"MEAN_MOTION_DOT":1.6e-7,"MEAN_MOTION_DDOT":0},{"OBJECT_NAME":"ONEWEB-0411","OBJECT_ID":"2022-012B","EPOCH":"2026-01-08T04:43:17.723424","MEAN_MOTION":13.1037386,"ECCENTRICITY":0.00012648,"INCLINATION":87.8785,"RA_OF_ASC_NODE":68.1592,"ARG_OF_PERICENTER":111.9748,"MEAN_ANOMALY":248.1514,"EPHEMERIS_TYPE":0,"CLASSIFICATION_TYPE":"U","NORAD_CAT_ID":51623,"ELEMENT_SET_NO":999,"REV_AT_EPOCH":18833,"BSTAR":-0.0010515639,"MEAN_MOTION_DOT":-3.54e-6,"MEAN_MOTION_DDOT":0},{"OBJECT_NAME":"ONEWEB-0415","OBJECT_ID":"2022-012C","EPOCH":"2026-01-08T04:38:32.174016","MEAN_MOTION":13.10374915,"ECCENTRICITY":0.00014938,"INCLINATION":87.8785,"RA_OF_ASC_NODE":68.1623,"ARG_OF_PERICENTER":107.5977,"MEAN_ANOMALY":252.5313,"EPHEMERIS_TYPE":0,"CLASSIFICATION_TYPE":"U","NORAD_CAT_ID":51624,"ELEMENT_SET_NO":999,"REV_AT_EPOCH":18833,"BSTAR":-0.0017618608,"MEAN_MOTION_DOT":-6.02e-6,"MEAN_MOTION_DDOT":0},{"OBJECT_NAME":"ONEWEB-0416","OBJECT_ID":"2022-012D","EPOCH":"2026-01-08T03:05:19.561632","MEAN_MOTION":13.10376226,"ECCENTRICITY":0.00016935,"INCLINATION":87.8785,"RA_OF_ASC_NODE":68.1958,"ARG_OF_PERICENTER":116.7317,"MEAN_ANOMALY":243.3984,"EPHEMERIS_TYPE":0,"CLASSIFICATION_TYPE":"U","NORAD_CAT_ID":51625,"ELEMENT_SET_NO":999,"REV_AT_EPOCH":18836,"BSTAR":-0.00020739629,"MEAN_MOTION_DOT":-6.0e-7,"MEAN_MOTION_DDOT":0},{"OBJECT_NAME":"ONEWEB-0422","OBJECT_ID":"2022-012E","EPOCH":"2026-01-08T07:20:24.451584","MEAN_MOTION":13.17648962,"ECCENTRICITY":0.00016696,"INCLINATION":87.9096,"RA_OF_ASC_NODE":37.6292,"ARG_OF_PERICENTER":71.6744,"MEAN_ANOMALY":288.4569,"EPHEMERIS_TYPE":0,"CLASSIFICATION_TYPE":"U","NORAD_CAT_ID":51626,"ELEMENT_SET_NO":999,"REV_AT_EPOCH":19275,"BSTAR":8.4705605e-5,"MEAN_MOTION_DOT":4.6e-7,"MEAN_MOTION_DDOT":0},{"OBJECT_NAME":"ONEWEB-0423","OBJECT_ID":"2022-012F","EPOCH":"2026-01-08T01:42:38.684448","MEAN_MOTION":13.17649936,"ECCENTRICITY":0.00018261,"INCLINATION":87.9095,"RA_OF_ASC_NODE":37.6858,"ARG_OF_PERICENTER":90.7017,"MEAN_ANOMALY":269.4324,"EPHEMERIS_TYPE":0,"CLASSIFICATION_TYPE":"U","NORAD_CAT_ID":51627,"ELEMENT_SET_NO":999,"REV_AT_EPOCH":19261,"BSTAR":8.767425e-5,"MEAN_MOTION_DOT":4.7e-7,"MEAN_MOTION_DDOT":0}]
